{"type": "FeatureCollection", "features": [ {"type": "Feature", "properties": {"norad_id": 39122, "name": "EUTELSAT 117 WEST A", "group": "eutelsat", "lat": -0.03168258673124876, "lon": -106.94406204627154, "alt_km": 35774.37225088626, "timestamp": "2025-12-15T19:00:45.017794+00:00", "meta": {"OBJECT_NAME": "EUTELSAT 117 WEST A", "OBJECT_ID": "2013-012A", "EPOCH": "2025-12-14T21:25:15.215808", "MEAN_MOTION": 1.00272234, "ECCENTRICITY": 0.00028179, "INCLINATION": 0.0198, "RA_OF_ASC_NODE": 29.1225, "ARG_OF_PERICENTER": 238.4725, "MEAN_ANOMALY": 20.7175, "EPHEMERIS_TYPE": 0, "CLASSIFICATION_TYPE": "U", "NORAD_CAT_ID": 39122, "ELEMENT_SET_NO": 999, "REV_AT_EPOCH": 4658, "BSTAR": 0, "MEAN_MOTION_DOT": 7e-08, "MEAN_MOTION_DDOT": 0}, "tle": {"line1": "1 39122U 13012A   25348.89253722  .00000007  00000+0  00000+0 0  9999", "line2": "2 39122   0.0198  29.1225 0002817 238.4725  20.7175  1.00272234 46583"}}, "geometry": {"type": "Point", "coordinates": [-106.94406204627154, -0.03168258673124876]}}, {"type": "Feature", "properties": {"norad_id": 39163, "name": "EUTELSAT 7B", "group": "eutelsat", "lat": 0.0020019918759499027, "lon": 16.929401463969793, "alt_km": 35774.801797330714, "timestamp": "2025-12-15T19:00:45.017809+00:00", "meta": {"OBJECT_NAME": "EUTELSAT 7B", "OBJECT_ID": "2013-022A", "EPOCH": "2025-12-14T22:09:38.644416", "MEAN_MOTION": 1.00273897, "ECCENTRICITY": 0.00046765, "INCLINATION": 0.0764, "RA_OF_ASC_NODE": 25.1173, "ARG_OF_PERICENTER": 294.6964, "MEAN_ANOMALY": 103.4419, "EPHEMERIS_TYPE": 0, "CLASSIFICATION_TYPE": "U", "NORAD_CAT_ID": 39163, "ELEMENT_SET_NO": 999, "REV_AT_EPOCH": 4610, "BSTAR": 0, "MEAN_MOTION_DOT": 6.8e-07, "MEAN_MOTION_DDOT": 0}, "tle": {"line1": "1 39163U 13022A   25348.92336394  .00000068  00000+0  00000+0 0  9993", "line2": "2 39163   0.0764  25.1173 0004676 294.6964 103.4419  1.00273897 46103"}}, "geometry": {"type": "Point", "coordinates": [16.929401463969793, 0.0020019918759499027]}}, {"type": "Feature", "properties": {"norad_id": 39612, "name": "EXPRESS-AT1", "group": "eutelsat", "lat": 0.044267420523410136, "lon": 65.8655487614211, "alt_km": 35784.75500722809, "timestamp": "2025-12-15T19:00:45.017821+00:00", "meta": {"OBJECT_NAME": "EXPRESS-AT1", "OBJECT_ID": "2014-010A", "EPOCH": "2025-12-15T13:39:14.187744", "MEAN_MOTION": 1.00274272, "ECCENTRICITY": 5.18e-05, "INCLINATION": 0.0215, "RA_OF_ASC_NODE": 345.6169, "ARG_OF_PERICENTER": 154.3, "MEAN_ANOMALY": 205.3652, "EPHEMERIS_TYPE": 0, "CLASSIFICATION_TYPE": "U", "NORAD_CAT_ID": 39612, "ELEMENT_SET_NO": 999, "REV_AT_EPOCH": 4297, "BSTAR": 0, "MEAN_MOTION_DOT": 0, "MEAN_MOTION_DDOT": 0}, "tle": {"line1": "1 39612U 14010A   25349.56891421  .00000000  00000+0  00000+0 0  9994", "line2": "2 39612   0.0215 345.6169 0000518 154.3000 205.3652  1.00274272 42972"}}, "geometry": {"type": "Point", "coordinates": [65.8655487614211, 0.044267420523410136]}}, {"type": "Feature", "properties": {"norad_id": 39613, "name": "EXPRESS-AT2", "group": "eutelsat", "lat": -0.010848100760512406, "lon": 149.71156240133143, "alt_km": 35790.09935296776, "timestamp": "2025-12-15T19:00:45.017833+00:00", "meta": {"OBJECT_NAME": "EXPRESS-AT2", "OBJECT_ID": "2014-010B", "EPOCH": "2025-12-15T03:46:33.450240", "MEAN_MOTION": 1.00273059, "ECCENTRICITY": 0.0001184, "INCLINATION": 0.0156, "RA_OF_ASC_NODE": 287.4019, "ARG_OF_PERICENTER": 12.0254, "MEAN_ANOMALY": 341.1258, "EPHEMERIS_TYPE": 0, "CLASSIFICATION_TYPE": "U", "NORAD_CAT_ID": 39613, "ELEMENT_SET_NO": 999, "REV_AT_EPOCH": 4265, "BSTAR": 0, "MEAN_MOTION_DOT": -2.6e-06, "MEAN_MOTION_DDOT": 0}, "tle": {"line1": "1 39613U 14010B   25349.15733160 -.00000260  00000+0  00000+0 0  9994", "line2": "2 39613   0.0156 287.4019 0001184  12.0254 341.1258  1.00273059 42653"}}, "geometry": {"type": "Point", "coordinates": [149.71156240133143, -0.010848100760512406]}}, {"type": "Feature", "properties": {"norad_id": 39773, "name": "EUTELSAT 3B", "group": "eutelsat", "lat": 0.03213619758583063, "lon": 12.98769019703089, "alt_km": 35800.713147204304, "timestamp": "2025-12-15T19:00:45.017845+00:00", "meta": {"OBJECT_NAME": "EUTELSAT 3B", "OBJECT_ID": "2014-030A", "EPOCH": "2025-12-14T22:09:38.644416", "MEAN_MOTION": 1.00271327, "ECCENTRICITY": 0.00043919, "INCLINATION": 0.0603, "RA_OF_ASC_NODE": 354.1693, "ARG_OF_PERICENTER": 236.938, "MEAN_ANOMALY": 188.2286, "EPHEMERIS_TYPE": 0, "CLASSIFICATION_TYPE": "U", "NORAD_CAT_ID": 39773, "ELEMENT_SET_NO": 999, "REV_AT_EPOCH": 4221, "BSTAR": 0, "MEAN_MOTION_DOT": 4e-07, "MEAN_MOTION_DDOT": 0}, "tle": {"line1": "1 39773U 14030A   25348.92336394  .00000040  00000+0  00000+0 0  9990", "line2": "2 39773   0.0603 354.1693 0004391 236.9380 188.2286  1.00271327 42216"}}, "geometry": {"type": "Point", "coordinates": [12.98769019703089, 0.03213619758583063]}}, {"type": "Feature", "properties": {"norad_id": 40425, "name": "EUTELSAT 115 WEST B", "group": "eutelsat", "lat": -0.015366737346204735, "lon": -105.03730463154483, "alt_km": 35786.367885413696, "timestamp": "2025-12-15T19:00:45.017857+00:00", "meta": {"OBJECT_NAME": "EUTELSAT 115 WEST B", "OBJECT_ID": "2015-010B", "EPOCH": "2025-12-14T09:56:38.487840", "MEAN_MOTION": 1.00269432, "ECCENTRICITY": 1.048e-05, "INCLINATION": 0.0412, "RA_OF_ASC_NODE": 162.7061, "ARG_OF_PERICENTER": 133.9502, "MEAN_ANOMALY": 180.944, "EPHEMERIS_TYPE": 0, "CLASSIFICATION_TYPE": "U", "NORAD_CAT_ID": 40425, "ELEMENT_SET_NO": 999, "REV_AT_EPOCH": 3954, "BSTAR": 0, "MEAN_MOTION_DOT": -6e-08, "MEAN_MOTION_DDOT": 0}, "tle": {"line1": "1 40425U 15010B   25348.41433435 -.00000006  00000+0  00000+0 0  9996", "line2": "2 40425   0.0412 162.7061 0000104 133.9502 180.9440  1.00269432 39549"}}, "geometry": {"type": "Point", "coordinates": [-105.03730463154483, -0.015366737346204735]}}, {"type": "Feature", "properties": {"norad_id": 40875, "name": "EUTELSAT 8 WEST B", "group": "eutelsat", "lat": -0.005010516002568048, "lon": 1.929933059663914, "alt_km": 35788.39822948596, "timestamp": "2025-12-15T19:00:45.017869+00:00", "meta": {"OBJECT_NAME": "EUTELSAT 8 WEST B", "OBJECT_ID": "2015-039B", "EPOCH": "2025-12-14T21:56:27.227328", "MEAN_MOTION": 1.00271775, "ECCENTRICITY": 0.00042539, "INCLINATION": 0.0671, "RA_OF_ASC_NODE": 13.0435, "ARG_OF_PERICENTER": 251.5034, "MEAN_ANOMALY": 140.406, "EPHEMERIS_TYPE": 0, "CLASSIFICATION_TYPE": "U", "NORAD_CAT_ID": 40875, "ELEMENT_SET_NO": 999, "REV_AT_EPOCH": 3780, "BSTAR": 0, "MEAN_MOTION_DOT": -4.6e-07, "MEAN_MOTION_DDOT": 0}, "tle": {"line1": "1 40875U 15039B   25348.91420402 -.00000046  00000+0  00000+0 0  9995", "line2": "2 40875   0.0671  13.0435 0004253 251.5034 140.4060  1.00271775 37803"}}, "geometry": {"type": "Point", "coordinates": [1.929933059663914, -0.005010516002568048]}}, {"type": "Feature", "properties": {"norad_id": 41310, "name": "EUTELSAT 9B", "group": "eutelsat", "lat": -0.020739175817489366, "lon": 18.908489216431235, "alt_km": 35791.89316702433, "timestamp": "2025-12-15T19:00:45.017881+00:00", "meta": {"OBJECT_NAME": "EUTELSAT 9B", "OBJECT_ID": "2016-005A", "EPOCH": "2025-12-14T22:09:38.644416", "MEAN_MOTION": 1.00270953, "ECCENTRICITY": 0.00045537, "INCLINATION": 0.0503, "RA_OF_ASC_NODE": 67.4635, "ARG_OF_PERICENTER": 204.5009, "MEAN_ANOMALY": 153.2743, "EPHEMERIS_TYPE": 0, "CLASSIFICATION_TYPE": "U", "NORAD_CAT_ID": 41310, "ELEMENT_SET_NO": 999, "REV_AT_EPOCH": 3626, "BSTAR": 0, "MEAN_MOTION_DOT": 8.1e-07, "MEAN_MOTION_DDOT": 0}, "tle": {"line1": "1 41310U 16005A   25348.92336394  .00000081  00000+0  00000+0 0  9999", "line2": "2 41310   0.0503  67.4635 0004553 204.5009 153.2743  1.00270953 36266"}}, "geometry": {"type": "Point", "coordinates": [18.908489216431235, -0.020739175817489366]}}, {"type": "Feature", "properties": {"norad_id": 41382, "name": "EUTELSAT 65 WEST A", "group": "eutelsat", "lat": -0.06474086717896657, "lon": -55.318994140739484, "alt_km": 35777.64487420083, "timestamp": "2025-12-15T19:00:45.017893+00:00", "meta": {"OBJECT_NAME": "EUTELSAT 65 WEST A", "OBJECT_ID": "2016-014A", "EPOCH": "2025-12-14T21:40:06.293568", "MEAN_MOTION": 1.00271321, "ECCENTRICITY": 0.00024202, "INCLINATION": 0.0541, "RA_OF_ASC_NODE": 19.4099, "ARG_OF_PERICENTER": 253.2025, "MEAN_ANOMALY": 71.0289, "EPHEMERIS_TYPE": 0, "CLASSIFICATION_TYPE": "U", "NORAD_CAT_ID": 41382, "ELEMENT_SET_NO": 999, "REV_AT_EPOCH": 3568, "BSTAR": 0, "MEAN_MOTION_DOT": -2.56e-06, "MEAN_MOTION_DDOT": 0}, "tle": {"line1": "1 41382U 16014A   25348.90285062 -.00000256  00000+0  00000+0 0  9996", "line2": "2 41382   0.0541  19.4099 0002420 253.2025  71.0289  1.00271321 35685"}}, "geometry": {"type": "Point", "coordinates": [-55.318994140739484, -0.06474086717896657]}}, {"type": "Feature", "properties": {"norad_id": 41589, "name": "EUTELSAT 117 WEST B", "group": "eutelsat", "lat": 0.01297650770550829, "lon": -107.13336276582837, "alt_km": 35786.666613151494, "timestamp": "2025-12-15T19:00:45.017904+00:00", "meta": {"OBJECT_NAME": "EUTELSAT 117 WEST B", "OBJECT_ID": "2016-038B", "EPOCH": "2025-12-14T21:25:22.704096", "MEAN_MOTION": 1.00268448, "ECCENTRICITY": 1.882e-05, "INCLINATION": 0.0096, "RA_OF_ASC_NODE": 155.7449, "ARG_OF_PERICENTER": 30.2857, "MEAN_ANOMALY": 102.1261, "EPHEMERIS_TYPE": 0, "CLASSIFICATION_TYPE": "U", "NORAD_CAT_ID": 41589, "ELEMENT_SET_NO": 999, "REV_AT_EPOCH": 3481, "BSTAR": 0, "MEAN_MOTION_DOT": 9e-08, "MEAN_MOTION_DDOT": 0}, "tle": {"line1": "1 41589U 16038B   25348.89262389  .00000009  00000+0  00000+0 0  9991", "line2": "2 41589   0.0096 155.7449 0000188  30.2857 102.1261  1.00268448 34813"}}, "geometry": {"type": "Point", "coordinates": [-107.13336276582837, 0.01297650770550829]}}]}